IRIDIUM 26              
1 24903U 97043A   26004.11578559  .00000668  00000+0  21743-3 0  9993
2 24903  86.3945  26.1545 0002335  94.8557 265.2907 14.37349471485606
IRIDIUM 22              
1 24907U 97043E   26004.14323977  .00000559  00000+0  18518-3 0  9997
2 24907  86.3946  29.8555 0002302  89.8056 270.3405 14.36140397485610
DUMMY MASS 1            
1 24925U 97048A   26004.14445825  .00000667  00000+0  70955-4 0  9993
2 24925  86.3324  42.3350 0007942 138.2775 221.9057 14.87205478534994
DUMMY MASS 2            
1 24926U 97048B   26004.07289237  .00000661  00000+0  70741-4 0  9996
2 24926  86.3324  44.0131 0008251 149.9822 210.1877 14.86955836534750
IRIDIUM 29              
1 24944U 97051A   26004.16255962  .00000579  00000+0  19002-3 0  9998
2 24944  86.3930  59.5260 0002133  88.6647 271.4795 14.36683783482120
IRIDIUM 33              
1 24946U 97051C   26004.15903207  .00000532  00000+0  17973-3 0  9995
2 24946  86.3847  58.8084 0009412 132.1755 228.0242 14.35055898481568
IRIDIUM 28              
1 24948U 97051E   26004.14874986  .00000629  00000+0  20341-3 0  9997
2 24948  86.3935  56.9327 0002596 102.7091 257.4397 14.37584385482714
IRIDIUM 36              
1 24967U 97056C   26004.15037882  .00000707  00000+0  22837-3 0  9999
2 24967  86.3956  88.5618 0002380  95.8329 264.3141 14.37808809481093
